LANDSAT 9               
1 49260U 21088A   24124.12371966  .00000577  00000+0  13802-3 0  9993
2 49260  98.1889 194.5011 0001301  90.5672 269.5675 14.57122369138126
